COMMENT,ORIGINATOR,NORAD_CAT_ID,OBJECT_NAME,OBJECT_TYPE,CLASSIFICATION_TYPE,INTLDES,EPOCH,EPOCH_MICROSECONDS,MEAN_MOTION,ECCENTRICITY,INCLINATION,RA_OF_ASC_NODE,ARG_OF_PERICENTER,MEAN_ANOMALY,EPHEMERIS_TYPE,ELEMENT_SET_NO,REV_AT_EPOCH,BSTAR,MEAN_MOTION_DOT,MEAN_MOTION_DDOT,FILE,TLE_LINE0,TLE_LINE1,TLE_LINE2,OBJECT_ID,OBJECT_NUMBER,SEMIMAJOR_AXIS,PERIOD,APOGEE,PERIGEE,DECAYED
"GENERATED VIA SPACETRACK.ORG API","18 SPCS","55091","SPACEBEE-164","PAYLOAD","U","23001CL","2023-10-27 14:23:10","997376","15.25561626","0.001196","97.4606","359.8104","257.2584","102.7318","0","999","4524","0.0011349","0.00028867","0","4056385","0 SPACEBEE-164","1 55091U 23001CL  23300.59943284  .00028867  00000-0  11349-2 0  9999","2 55091  97.4606 359.8104 0011960 257.2584 102.7318 15.25561626 45240","2023-001CL","55091","6867.236","94.391","497.315","480.888","0"
"GENERATED VIA SPACETRACK.ORG API","18 SPCS","55091","SPACEBEE-164","PAYLOAD","U","23001CL","2023-10-28 02:58:47","446464","15.25593793","0.0011934","97.4604","0.334","255.4343","104.5572","0","999","4532","0.0010829","0.00027563","0","4057688","0 SPACEBEE-164","1 55091U 23001CL  23301.12416026  .00027563  00000-0  10829-2 0  9992","2 55091  97.4604   0.3340 0011934 255.4343 104.5572 15.25593793 45323","2023-001CL","55091","6867.140","94.389","497.200","480.810","0"
"GENERATED VIA SPACETRACK.ORG API","18 SPCS","55091","SPACEBEE-164","PAYLOAD","U","23001CL","2023-10-28 17:08:49","890912","15.25631235","0.0011937","97.4603","0.9225","252.6289","107.3643","0","999","4541","0.0012336","0.0003146","0","4058211","0 SPACEBEE-164","1 55091U 23001CL  23301.71446633  .00031460  00000-0  12336-2 0  9990","2 55091  97.4603   0.9225 0011937 252.6289 107.3643 15.25631235 45415","2023-001CL","55091","6867.028","94.387","497.090","480.695","0"
"GENERATED VIA SPACETRACK.ORG API","18 SPCS","55091","SPACEBEE-164","PAYLOAD","U","23001CL","2023-10-28 17:08:49","890912","15.25631235","0.0011937","97.4603","0.9225","252.6289","107.3643","0","999","4541","0.0012336","0.0003146","0","4058258","0 SPACEBEE-164","1 55091U 23001CL  23301.71446633  .00031460  00000-0  12336-2 0  9990","2 55091  97.4603   0.9225 0011937 252.6289 107.3643 15.25631235 45415","2023-001CL","55091","6867.028","94.387","497.090","480.695","0"
"GENERATED VIA SPACETRACK.ORG API","18 SPCS","55091","SPACEBEE-164","PAYLOAD","U","23001CL","2023-10-29 02:35:30","680736","15.25662501","0.0011903","97.4601","1.315","251.4142","108.5804","0","999","4547","0.0013896","0.000355","0","4059417","0 SPACEBEE-164","1 55091U 23001CL  23302.10799399  .00035500  00000-0  13896-2 0  9995","2 55091  97.4601   1.3150 0011903 251.4142 108.5804 15.25662501 45471","2023-001CL","55091","6866.934","94.385","496.973","480.625","0"
"GENERATED VIA SPACETRACK.ORG API","18 SPCS","55091","SPACEBEE-164","PAYLOAD","U","23001CL","2023-10-29 16:45:30","758688","15.2570508","0.0011869","97.46","1.9034","249.5024","110.494","0","999","4556","0.001364","0.00034886","0","4059937","0 SPACEBEE-164","1 55091U 23001CL  23302.69827267  .00034886  00000-0  13640-2 0  9998","2 55091  97.4600   1.9034 0011869 249.5024 110.4940 15.25705080 45568","2023-001CL","55091","6866.806","94.383","496.821","480.521","0"
"GENERATED VIA SPACETRACK.ORG API","18 SPCS","55091","SPACEBEE-164","PAYLOAD","U","23001CL","2023-10-29 21:28:50","439072","15.25719094","0.0011876","97.4598","2.0996","248.8776","111.1193","0","999","4559","0.0014001","0.00035831","0","4059994","0 SPACEBEE-164","1 55091U 23001CL  23302.89502823  .00035831  00000-0  14001-2 0  9991","2 55091  97.4598   2.0996 0011876 248.8776 111.1193 15.25719094 45598","2023-001CL","55091","6866.764","94.382","496.784","480.474","0"
"GENERATED VIA SPACETRACK.ORG API","18 SPCS","55091","SPACEBEE-164","PAYLOAD","U","23001CL","2023-10-30 03:46:36","456096","15.25738315","0.0011897","97.4594","2.3613","247.9638","112.0337","0","999","4563","0.0013843","0.00035444","0","4061878","0 SPACEBEE-164","1 55091U 23001CL  23303.15736639  .00035444  00000-0  13843-2 0  9998","2 55091  97.4594   2.3613 0011897 247.9638 112.0337 15.25738315 45635","2023-001CL","55091","6866.706","94.381","496.741","480.402","0"
"GENERATED VIA SPACETRACK.ORG API","18 SPCS","55091","SPACEBEE-164","PAYLOAD","U","23001CL","2023-10-31 03:23:11","929920","15.25798542","0.0011976","97.4587","3.3423","244.2589","115.7414","0","999","4578","0.0013149","0.00033718","0","4062274","0 SPACEBEE-164","1 55091U 23001CL  23304.14111030  .00033718  00000-0  13149-2 0  9991","2 55091  97.4587   3.3423 0011976 244.2589 115.7414 15.25798542 45780","2023-001CL","55091","6866.526","94.377","496.614","480.167","0"
"GENERATED VIA SPACETRACK.ORG API","18 SPCS","55091","SPACEBEE-164","PAYLOAD","U","23001CL","2023-10-31 03:23:11","929920","15.25798542","0.0011976","97.4587","3.3423","244.2589","115.7414","0","999","4578","0.0013149","0.00033718","0","4063043","0 SPACEBEE-164","1 55091U 23001CL  23304.14111030  .00033718  00000-0  13149-2 0  9991","2 55091  97.4587   3.3423 0011976 244.2589 115.7414 15.25798542 45780","2023-001CL","55091","6866.526","94.377","496.614","480.167","0"
"GENERATED VIA SPACETRACK.ORG API","18 SPCS","55091","SPACEBEE-164","PAYLOAD","U","23001CL","2023-10-31 17:33:07","717248","15.2582806","0.0012029","97.4585","3.931","242.0877","117.9143","0","999","4587","0.0010985","0.00028161","0","4063660","0 SPACEBEE-164","1 55091U 23001CL  23304.73133932  .00028161  00000-0  10985-2 0  9992","2 55091  97.4585   3.9310 0012029 242.0877 117.9143 15.25828060 45877","2023-001CL","55091","6866.437","94.375","496.562","480.042","0"
"GENERATED VIA SPACETRACK.ORG API","18 SPCS","55091","SPACEBEE-164","PAYLOAD","U","23001CL","2023-11-01 02:59:44","245824","15.25853336","0.0012032","97.4584","4.3233","240.7128","119.2909","0","999","4593","0.0011938","0.00030644","0","4064099","0 SPACEBEE-164","1 55091U 23001CL  23305.12481766  .00030644  00000-0  11938-2 0  9995","2 55091  97.4584   4.3233 0012032 240.7128 119.2909 15.25853336 45939","2023-001CL","55091","6866.361","94.373","496.488","479.965","0"
"GENERATED VIA SPACETRACK.ORG API","18 SPCS","55091","SPACEBEE-164","PAYLOAD","U","23001CL","2023-11-01 09:17:28","306752","15.2586847","0.0012058","97.4584","4.5851","239.5553","120.4494","0","999","4597","0.0011786","0.00030266","0","4064888","0 SPACEBEE-164","1 55091U 23001CL  23305.38713318  .00030266  00000-0  11786-2 0  9995","2 55091  97.4584   4.5851 0012058 239.5553 120.4494 15.25868470 45975","2023-001CL","55091","6866.316","94.372","496.460","479.901","0"
"GENERATED VIA SPACETRACK.ORG API","18 SPCS","55091","SPACEBEE-164","PAYLOAD","U","23001CL","2023-11-01 17:09:38","70144","15.25886716","0.0012036","97.4583","4.9119","238.078","121.9288","0","999","4602","0.0010652","0.00027351","0","4065398","0 SPACEBEE-164","1 55091U 23001CL  23305.71502396  .00027351  00000-0  10652-2 0  9996","2 55091  97.4583   4.9119 0012036 238.0780 121.9288 15.25886716 46024","2023-001CL","55091","6866.261","94.371","496.390","479.862","0"
"GENERATED VIA SPACETRACK.ORG API","18 SPCS","55091","SPACEBEE-164","PAYLOAD","U","23001CL","2023-11-02 04:10:39","46656","15.25918975","0.0012015","97.4582","5.3697","236.8772","123.1313","0","999","4609","0.0012167","0.00031298","0","4066022","0 SPACEBEE-164","1 55091U 23001CL  23306.17406304  .00031298  00000-0  12167-2 0  9997","2 55091  97.4582   5.3697 0012015 236.8772 123.1313 15.25918975 46096","2023-001CL","55091","6866.164","94.369","496.279","479.780","0"
"GENERATED VIA SPACETRACK.ORG API","18 SPCS","55091","SPACEBEE-164","PAYLOAD","U","23001CL","2023-11-02 04:10:39","46656","15.25918975","0.0012015","97.4582","5.3697","236.8772","123.1313","0","999","4609","0.0012167","0.00031298","0","4066590","0 SPACEBEE-164","1 55091U 23001CL  23306.17406304  .00031298  00000-0  12167-2 0  9997","2 55091  97.4582   5.3697 0012015 236.8772 123.1313 15.25918975 46096","2023-001CL","55091","6866.164","94.369","496.279","479.780","0"
"GENERATED VIA SPACETRACK.ORG API","18 SPCS","55091","SPACEBEE-164","PAYLOAD","U","23001CL","2023-11-02 21:29:21","921504","15.25962827","0.0012038","97.458","6.0891","233.8917","126.1207","0","999","4620","0.0011399","0.00029349","0","4067000","0 SPACEBEE-164","1 55091U 23001CL  23306.89539261  .00029349  00000-0  11399-2 0  9995","2 55091  97.4580   6.0891 0012038 233.8917 126.1207 15.25962827 46204","2023-001CL","55091","6866.033","94.367","496.163","479.632","0"
"GENERATED VIA SPACETRACK.ORG API","18 SPCS","55091","SPACEBEE-164","PAYLOAD","U","23001CL","2023-11-03 10:04:46","488000","15.25996478","0.0012082","97.458","6.613","231.4678","128.5478","0","999","4628","0.0011544","0.00029755","0","4068111","0 SPACEBEE-164","1 55091U 23001CL  23307.41998250  .00029755  00000-0  11544-2 0  9994","2 55091  97.4580   6.6130 0012082 231.4678 128.5478 15.25996478 46286","2023-001CL","55091","6865.932","94.365","496.092","479.501","0"
"GENERATED VIA SPACETRACK.ORG API","18 SPCS","55091","SPACEBEE-164","PAYLOAD","U","23001CL","2023-11-03 10:04:46","488000","15.25996478","0.0012082","97.458","6.613","231.4678","128.5478","0","999","4628","0.0011544","0.00029755","0","4068165","0 SPACEBEE-164","1 55091U 23001CL  23307.41998250  .00029755  00000-0  11544-2 0  9994","2 55091  97.4580   6.6130 0012082 231.4678 128.5478 15.25996478 46286","2023-001CL","55091","6865.932","94.365","496.092","479.501","0"
"GENERATED VIA SPACETRACK.ORG API","18 SPCS","55091","SPACEBEE-164","PAYLOAD","U","23001CL","2023-11-03 16:22:28","387200","15.26014822","0.0012104","97.458","6.8746","230.5378","129.479","0","999","4632","0.0011785","0.00030398","0","4068824","0 SPACEBEE-164","1 55091U 23001CL  23307.68227300  .00030398  00000-0  11785-2 0  9996","2 55091  97.4580   6.8746 0012104 230.5378 129.4790 15.26014822 46320","2023-001CL","55091","6865.877","94.363","496.052","479.431","0"
